CZ-2C R/B               
1 54039U 22132E   26051.57644498  .00032175  00000+0  39097-3 0  9990
2 54039  97.2963  54.3962 0020099 146.8426 213.4096 15.60268045187704
GSLV R/B                
1 54149U 22138AN  26051.73867668  .00003516  00000+0  30484-3 0  9990
2 54149  87.3881 172.0342 0020535 207.6720 152.3421 14.96636598181395
XRISM                   
1 57800U 23137A   26051.33751800  .00004714  00000+0  26762-3 0  9998
2 57800  31.0031  35.8743 0008293 226.3031 133.6921 15.11269391135168
ACS3                    
1 59588U 24077B   26051.71605133  .00019351  00000+0  15846-1 0  9998
2 59588  97.2166 356.6450 0049317 125.7076 234.8691 13.88849016 91842
SZ-21 MODULE            
1 66515U 25246C   26051.04654385  .00031392  00000+0  28694-3 0  9990
2 66515  41.4757 311.8512 0001754 295.1642  64.9017 15.67142085 15305
